SENTINEL-6              
1 46984U 20086A   23195.38208071 -.00000023  00000+0  16678-3 0  9992
2 46984  66.0387 194.9713 0008102 269.2297  90.7790 12.80930566123564
